EARTHCARE               
1 59908U 24101A   24248.28491146  .00033316  00000+0  45621-3 0  9990
2 59908  96.9882  14.2455 0004416 158.0846 202.0600 15.57321783 15281
